BEESAT-4                
1 41619U 16040W   21188.39919399  .00002330  00000-0  94350-4 0  9997
2 41619  97.2684 243.9307 0008853 258.2800 101.7446 15.25632704268055
CAS-2T & KS-1Q          
1 41847U 16066G   21188.44277134  .00000201  00000-0  40044-4 0  9994
2 41847  98.6000 247.6569 0365720 160.5649 200.9911 14.38206098244757
NAYIF-1 (EO-88)         
1 42017U 17008BX  21187.87658925  .00002917  00000-0  10843-3 0  9997
2 42017  97.3153 255.1289 0007126  52.0239 308.1643 15.28306025244224
ZHUHAI-1 02 (CAS-4B)    
1 42759U 17034B   21188.86570218  .00000663  00000-0  53152-4 0  9994
2 42759  43.0185  68.8591 0010094 292.5449 166.8333 15.10256465224234
ZHUHAI-1 01 (CAS-4A)    
1 42761U 17034D   21188.85513293  .00000728  00000-0  56901-4 0  9993
2 42761  43.0179  67.9565 0010470 293.1691 164.2194 15.10344365224239
MAX VALIER SAT          
1 42778U 17036P   21188.72855092  .00001665  00000-0  72085-4 0  9997
2 42778  97.2535 236.6739 0013657 103.4788 256.7972 15.23688225224378
RADFXSAT (FOX-1B)       
1 43017U 17073E   21188.28356021  .00000413  00000-0  37690-4 0  9997
2 43017  97.7056  91.4866 0253526 235.5267 122.1762 14.79591919196055
FOX-1D (AO-92)          
1 43137U 18004AC  21187.88250525  .00001975  00000-0  81137-4 0  9991
2 43137  97.4063 261.7156 0009989 135.4832 224.7211 15.25340336193620
DIWATA-2B               
1 43678U 18084H   21188.91178081  .00000344  00000-0  39850-4 0  9994
2 43678  97.9258 314.2968 0009489 352.7599   7.3513 14.91763217146486
ES'HAIL 2               
1 43700U 18090A   21188.73365380  .00000155  00000-0  00000+0 0  9997
2 43700   0.0175  39.7523 0001201  99.5104  76.5507  1.00272604  9810
FOX-1CLIFF (AO-95)      
1 43770U 18099N   21188.45781684  .00000462  00000-0  46986-4 0  9990
2 43770  97.6640 258.2027 0014196 356.9898   3.1235 14.95348368141449
ITASAT 1                
1 43786U 18099AE  21188.44001767 -.00000105  00000-0 -42504-5 0  9992
2 43786  97.6662 258.8774 0014806 349.7707  10.3211 14.95641126141477
JY1SAT (JO-97)          
1 43803U 18099AX  21188.73501985  .00000781  00000-0  74825-4 0  9999
2 43803  97.6622 258.9154 0014481 348.8123  11.2774 14.95891583141521
UWE-4                   
1 43880U 18111E   21188.70505371  .00000566  00000-0  54307-4 0  9993
2 43880  97.6865  96.0925 0013533  42.0622 318.1636 14.96902211136113
NEXUS (FO-99)           
1 43937U 19003F   21187.86527153  .00002174  00000-0  87166-4 0  9991
2 43937  97.1747 230.2689 0021508 306.3614  53.5640 15.25849218137225
PSAT2 (NO-104)          
1 44354U 19036R   21187.75479813  .00023915  00000-0  31418-3 0  9992
2 44354  28.5283 358.3145 0322952 125.2790 237.8458 15.14215670111897
BRICSAT2 (NO-103)       
1 44355U 19036S   21188.48906490  .00045583 -58204-5  47186-3 0  9999
2 44355  28.5279 305.0134 0256408 212.1523 146.3203 15.31489463112493
JAISAT-1                
1 44419U 19038F   21187.87348167  .00001329  00000-0  76997-4 0  9993
2 44419  97.5894 152.5044 0019413 243.6726 116.2512 15.13830175110739
DUCHIFAT-3              
1 44854U 19089C   21188.76968337  .00000615  00000-0  55488-4 0  9997
2 44854  36.9695 340.4859 0009871 304.1021  55.8758 14.99530528 86158
CAS-6 (TO-108)          
1 44881U 19093C   21188.59486147  .00000086  00000-0  17772-4 0  9993
2 44881  97.9234 267.2035 0013954 224.1868 135.8241 14.81461229 83710
RS-44 & BREEZE-KM R/B   
1 44909U 19096E   21187.86041703  .00000002  00000-0 -39561-4 0  9990
2 44909  82.5218  99.9208 0218422  47.9114 314.0334 12.79710633 71304
ORBITAL FACTORY 2 (OF-2)
1 45113U 19071C   21188.57651582  .00003980  00000-0  12274-3 0  9990
2 45113  51.6429 299.9333 0011913   8.3341 351.7838 15.35929630 80269
HUSKYSAT-1 (HO-107)     
1 45119U 19071J   21187.80686744  .00003707  00000-0  11506-3 0  9993
2 45119  51.6420 303.0387 0011270   2.5853 357.5187 15.35938867 80142
BY70-2                  
1 45857U 20042B   21188.62928865  .00001445  00000-0  21159-3 0  9998
2 45857  97.9832 264.1668 0012383 142.6810 217.5268 14.77091130 54521
SALSAT                  
1 46495U 20068K   21188.29422697  .00000881  00000-0  69018-4 0  9990
2 46495  97.6936 125.6709 0017190  10.2887 349.8686 15.03489292 42311
BY70-3                  
1 46839U 20079N   21188.87204944  .00003793  00000-0  11818-3 0  9990
2 46839  97.2397 262.3229 0008601 126.3721 344.9329 15.33836237 37333
RADFXSAT-2 (AO-109)     
1 47311U 21002C   21188.20169526  .00000942  00000-0  52654-4 0  9993
2 47311  60.6853 217.2682 0039318  59.0275 301.4665 15.21721485 25879
UVSQ-SAT                
1 47438U 21006AB  21188.41855354  .00001035  00000-0  61900-4 0  9999
2 47438  97.4862 249.2843 0013560  35.7509 324.4627 15.13190596 25072
DIY-1 (ARDUIQUBE)       
1 47963U 21022AH  21188.14459738  .00002784  00000-0  18771-3 0  9995
2 47963  97.5575  90.1299 0018017 235.8452 124.1068 15.07346306 14861
